#cP2023 12  9  0  0  0.00000000      96 ORBIT IGS20 HLM  IGS
## 2291 518400.00000000   900.00000000 60287 0.0000000000000
+   32   G01G02G03G04G05G06G07G08G09G10G11G12G13G14G15G16G17
+        G18G19G20G21G22G23G24G25G26G27G28G29G30G31G32  0  0
+          0  0  0  0  0  0  0  0  0  0  0  0  0  0  0  0  0
+          0  0  0  0  0  0  0  0  0  0  0  0  0  0  0  0  0
+          0  0  0  0  0  0  0  0  0  0  0  0  0  0  0  0  0
++         2  2  2  2  2  2  2  2  2  2  2  2  2  2  2  2  2
++         2  2  2  2  2  2  2  2  2  2  2  2  2  2  2  0  0
++         0  0  0  0  0  0  0  0  0  0  0  0  0  0  0  0  0
++         0  0  0  0  0  0  0  0  0  0  0  0  0  0  0  0  0
++         0  0  0  0  0  0  0  0  0  0  0  0  0  0  0  0  0
%c G  cc GPS ccc cccc cccc cccc cccc ccccc ccccc ccccc ccccc
%c cc cc ccc ccc cccc cccc cccc cccc ccccc ccccc ccccc ccccc
%f  1.2500000  1.025000000  0.00000000000  0.000000000000000
%f  0.0000000  0.000000000  0.00000000000  0.000000000000000
%i    0    0    0    0      0      0      0      0         0
%i    0    0    0    0      0      0      0      0         0
/* RAPID ORBIT COMBINATION FROM WEIGHTED AVERAGE OF:        
/* cod emr esa gfz grg jgx jpl ngs sio usn whu              
/* REFERENCED TO IGS TIME (IGST) AND TO WEIGHTED MEAN POLE: 
/* PCV:IGS20      OL/AL:FES2014b NONE     Y  ORB:CMB CLK:CMB
*  2023 12  9  6  0  0.00000000
PG01  20318.720924  14432.536151 -10014.600459    163.730498  7  7  4 115       
PG02  16215.705022  14612.073851 -14779.887527   -518.096780  5  6  6 107       
PG03  11713.673455  20997.754685  11256.815722     41.467593  4  6  5 102       
PG04  12056.355439   9588.833053  21654.708502    234.615452  2  4  4 110       
PG05  -5933.362769 -25828.162451    552.733238   -153.433260  6  6  5  87       
PG06  14493.177890  -9077.526786  20424.368624    483.439166  4  4  3  76       
PG07  25759.636631   5243.906277  -4803.162306     -7.249484  3  3  4 102       
PG08   4877.408459  15625.628300 -20915.476687   -156.054074  6  6  5 107       
PG09  19872.868433  -1460.724824  17502.934153     21.190648  4  3  2 106       
PG10 -11894.069386  11161.231443 -20690.545613    -64.588297  5  4  4 111       
PG11   2800.004551 -15054.847916  21728.291628   -493.428391  4  7  5  87       
PG12 -10023.327194 -22210.431637  10377.825441   -455.526452  4  6  5 103       
PG13   6779.229509 -18793.982778 -17593.940789    603.733844  2  4  5  88       
PG14  14226.927863  -7247.850139 -21180.335775    265.766527  6  5  6 104       
PG15  -6783.846014 -15708.237457 -20758.622249    105.102581  5  7  5  95       
PG16  -1212.529899  25606.092693   5631.476014   -407.582942  4  6  6  99       
PG17  22684.975777 -12524.228830  -5710.903293    722.263041  2  5  5  85       
PG18 -25349.588461  -4050.445867  -7164.315786   -501.370878  3  7  7 106       
PG19  20479.893152 -16399.278979   2452.908478    409.949561  3  6  6  85       
PG20   1247.522518 -23111.771724  13241.322441    397.568004  5  8  7  95       
PG21  13404.079240  15460.827893 -16917.785070    142.059611  5  8  5 112       
PG22  11195.200835 -15319.488467 -18264.286124     69.331047  3  6  4  88       
PG23 -15460.268232  -2819.679779 -21425.608374    112.807730  5  5  6 110       
PG24 -16208.437004 -15394.851753 -15053.796415   -389.397400  8  7  6 102       
PG25 -15532.177789 -11535.346906  17985.827720    480.742536  5  5  4 107       
PG26  -5379.957774  21264.151246  14581.743541    210.687019  5  7  6 103       
PG27  -8652.623073  20696.740497 -14141.302291    -80.644597  5  6  5 108       
PG28 -16558.070155   8692.222993  18832.728810    -65.411971  6  4  5 108       
PG29 -19476.677227   -771.749239  18043.817253   -609.899406  5  8  5  96       
PG30  22264.427563  -3326.340853 -14178.753700   -459.515745  5  5  3 105       
PG31  -8744.717712  12903.059052  21336.911973   -226.455709  5  4  4 112       
PG32 -20917.312967  15885.581518  -2892.229639   -594.479158  1  6  4  93       
*  2023 12  9  6 15  0.00000000
PG01  19117.378736  14159.297294 -12513.526904    163.730926  7  6  5 116       
PG02  14346.186867  14370.863073 -16733.503900   -518.091862  5  7  5 100       
PG03  11805.176206  22160.519537   8678.590516     41.492011  4  6  5 102       
PG04  10186.795435  11224.783835  21816.499502    234.624625  2  4  4 108       
PG05  -5637.180673 -25654.594443   3418.792225   -153.435277  6  6  6  86       
PG06  16602.075130  -8326.371618  19100.005159    483.428936  4  4  4  84       
PG07  26105.295834   5612.898065  -2031.968761     -7.258161  3  3  4 101       
PG08   3144.396980  17192.219947 -19957.275903   -156.055639  6  7  5 101       
PG09  18465.392006    111.243445  19025.593341     21.201108  4  3  1 106       
PG10 -12511.967248   8784.601657 -21478.818224    -64.590001  6  4  4  97       
PG11   5142.308877 -14218.340658  21858.964505   -493.442223  4  6  5  82       
PG12  -9969.309764 -23304.544679   7781.684713   -455.530307  4  7  5 106       
PG13   8406.497506 -19742.060013 -15713.499486    603.737388  2  4  4  92       
PG14  14751.594714  -4850.430536 -21518.900831    265.776049  6  5  6  94       
PG15  -5297.210925 -17384.942636 -19790.561112    105.105881  5  6  5  95       
PG16  -1600.447880  24802.711150   8364.751419   -407.576550  4  6  6 112       
PG17  22156.797329 -11816.850016  -8425.055662    722.262704  2  6  5 100       
PG18 -25914.585958  -4441.512546  -4393.943862   -501.380133  3  7  7 105       
PG19  20742.495692 -16277.637392   -440.049452    409.954418  3  6  6  90       
PG20   2061.304886 -21692.324436  15362.415203    397.566038  6  9  8  91       
PG21  11338.901307  15134.519952 -18511.557562    142.059611  5  8  5 102       
PG22  11611.636136 -13112.725128 -19612.914561     69.324925  3  7  4  92       
PG23 -16012.509917  -5154.689158 -20585.729992    112.813905  5  5  6  92       
PG24 -14450.687286 -15222.159906 -16915.216311   -389.404827  8  7  6  92       
PG25 -15854.778980 -13528.121029  16290.329663    480.743957  5  5  4 109       
PG26  -6160.028131  19599.064642  16497.455924    210.684277  5  6  6 108       
PG27  -9865.304970  21541.056474 -11819.256543    -80.648976  5  6  5  95       
PG28 -18518.051397   8014.628807  17242.702661    -65.420667  6  3  6 105       
PG29 -17863.160285  -2198.986332  19522.305833   -609.899482  5  8  4 100       
PG30  23633.545688  -2642.430359 -11976.842356   -459.511904  5  5  3  93       
PG31 -11056.622241  12093.779251  20772.542320   -226.455952  4  4  4 110       
PG32 -20728.595082  15335.278862  -5703.046244   -594.482620  2  5  4  95       
*  2023 12  9  6 30  0.00000000
PG01  17644.628236  13887.345429 -14804.690068    163.731400  7  6  5 109       
PG02  12256.942772  14197.002037 -18390.944153   -518.087234  5  7  5  96       
PG03  11877.493167  23026.257581   5951.083767     41.516361  5  7  5  99       
PG04   8406.956348  12955.609201  21603.128569    234.633696  1  4  4 112       
PG05  -5225.530405 -25192.210423   6225.512888   -153.436572  5  7  6  83       
PG06  18587.007962  -7737.949458  17449.961528    483.418725  4  3  4  83       
PG07  26166.442670   5884.959384    773.396325     -7.267090  4  4  4 102       
PG08   1576.083173  18752.472342 -18654.439723   -156.057712  6  8  5  78       
PG09  17036.323357   1868.184198  20219.125399     21.211548  3  3  1 111       
PG10 -13277.423044   6381.928062 -21889.227207    -64.591129  5  4  4 105       
PG11   7519.936975 -13508.774594  21614.298110   -493.456018  4  6  5  84       
PG12  -9909.866228 -24102.748502   5050.902915   -455.533949  5  8  5 100       
PG13   9804.634354 -20635.105409 -13563.738505    603.741083  2  4  4  97       
PG14  15399.126933  -2467.119999 -21486.219759    265.785544  6  5  6  92       
PG15  -3963.716226 -19032.447642 -18493.552440    105.109516  5  6  5  88       
PG16  -2090.562738  23719.739562  10948.452206   -407.570225  4  6  6 106       
PG17  21447.424259 -10873.678533 -10992.954589    722.262314  3  6  5  92       
PG18 -26193.373941  -4720.525510  -1548.759174   -501.389385  4  6  7 106       
PG19  20758.158353 -15957.706625  -3325.289523    409.958975  3  6  6  84       
PG20   3045.801444 -20114.844261  17222.110285    397.564385  6  9  8  90       
PG21   9087.790147  14893.366821 -19783.235022    142.057526  5  8  5 103       
PG22  12169.317173 -10793.640229 -20613.764532     69.319012  3  6  4  83       
PG23 -16655.936599  -7344.744443 -19392.599220    112.820039  5  6  6 109       
PG24 -12498.067352 -15107.921129 -18498.168934   -389.412246  8  6  6  94       
PG25 -16216.390080 -15298.237050  14311.058549    480.745394  5  6  4 103       
PG26  -7086.586069  17784.571989  18122.391020    210.681535  5  6  6 100       
PG27 -10846.871300  22247.576366  -9291.914141    -80.653331  5  6  5  93       
PG28 -20317.634781   7480.226464  15355.336978    -65.429368  6  3  6 105       
PG29 -16218.293278  -3811.913828  20664.578387   -609.898988  5  7  4 104       
PG30  24781.390728  -2090.099551  -9570.323695   -459.508068  5  5  3  93       
PG31 -13320.473572  11426.465632  19846.571114   -226.456433  4  4  4 102       
PG32 -20353.738253  14545.059894  -8413.985645   -594.486058  3  5  4 105       
EOF
